COMMENT,ORIGINATOR,NORAD_CAT_ID,OBJECT_NAME,OBJECT_TYPE,CLASSIFICATION_TYPE,INTLDES,EPOCH,EPOCH_MICROSECONDS,MEAN_MOTION,ECCENTRICITY,INCLINATION,RA_OF_ASC_NODE,ARG_OF_PERICENTER,MEAN_ANOMALY,EPHEMERIS_TYPE,ELEMENT_SET_NO,REV_AT_EPOCH,BSTAR,MEAN_MOTION_DOT,MEAN_MOTION_DDOT,FILE,TLE_LINE0,TLE_LINE1,TLE_LINE2,OBJECT_ID,OBJECT_NUMBER,SEMIMAJOR_AXIS,PERIOD,APOGEE,PERIGEE,DECAYED
GENERATED VIA SPACETRACK.ORG API,18 SPCS,50803,STARLINK-3321,PAYLOAD,U,22001A,2022-05-06 22:00:00,999936,15.08823844,0.0001739,53.2179,346.4008,51.2663,99.9248,0,999,1990,0.00031065,4.657e-05,0.0,3432356,0 STARLINK-3321,1 50803U 22001A   22126.91667824  .00004657  00000-0  31065-3 0  9997,2 50803  53.2179 346.4008 0001739  51.2663  99.9248 15.08823844 19906,2022-001A,50803,6917.93,95.439,540.998,538.592,1
GENERATED VIA SPACETRACK.ORG API,18 SPCS,50803,STARLINK-3321,PAYLOAD,U,22001A,2022-05-07 14:00:01,224,15.08838811,0.0001583,53.2182,343.4063,58.2707,116.0896,0,999,360,0.0018937,0.00029978,0.0,3433971,0 STARLINK-3321,1 50803U 22001A   22127.58334491  .00029978  00000-0  18937-2 0  9997,2 50803  53.2182 343.4063 0001583  58.2707 116.0896 15.08838811  3601,2022-001A,50803,6917.884,95.438,540.844,538.654,1
GENERATED VIA SPACETRACK.ORG API,18 SPCS,50803,STARLINK-3321,PAYLOAD,U,22001A,2022-05-07 22:00:00,999936,15.08857011,0.0001719,53.2181,341.9118,50.9959,134.967,0,999,360,-0.0014768,-0.00023726,0.0,3434697,0 STARLINK-3321,1 50803U 22001A   22127.91667824 -.00023726  00000-0 -14768-2 0  9998,2 50803  53.2181 341.9118 0001719  50.9959 134.9670 15.08857011  3605,2022-001A,50803,6917.828,95.436,540.883,538.504,1
GENERATED VIA SPACETRACK.ORG API,18 SPCS,50803,STARLINK-3321,PAYLOAD,U,22001A,2022-05-08 06:00:00,999648,15.08851685,0.0001561,53.2179,340.4145,50.3217,147.2449,0,999,2010,-0.0021092,-0.0003371,0.0,3434727,0 STARLINK-3321,1 50803U 22001A   22128.25001157 -.00033710  00000-0 -21092-2 0  9999,2 50803  53.2179 340.4145 0001561  50.3217 147.2449 15.08851685 20108,2022-001A,50803,6917.845,95.437,540.79,538.63,1
GENERATED VIA SPACETRACK.ORG API,18 SPCS,50803,STARLINK-3321,PAYLOAD,U,22001A,2022-05-08 14:00:01,224,15.08835792,0.000149,53.2182,338.9174,57.8257,151.3316,0,999,359,0.0013625,0.0002146,0.0,3435746,0 STARLINK-3321,1 50803U 22001A   22128.58334491  .00021460  00000-0  13625-2 0  9995,2 50803  53.2182 338.9174 0001490  57.8257 151.3316 15.08835792  3597,2022-001A,50803,6917.893,95.438,540.789,538.727,1
GENERATED VIA SPACETRACK.ORG API,18 SPCS,50803,STARLINK-3321,PAYLOAD,U,22001A,2022-05-08 20:00:01,224,15.08854686,0.0001633,53.2179,337.7967,51.9228,75.9335,0,999,2019,-0.0015454,-0.00024809,0.0,3435831,0 STARLINK-3321,1 50803U 22001A   22128.83334491 -.00024809  00000-0 -15454-2 0  9997,2 50803  53.2179 337.7967 0001633  51.9228  75.9335 15.08854686 20192,2022-001A,50803,6917.836,95.437,540.83,538.571,1
GENERATED VIA SPACETRACK.ORG API,18 SPCS,50803,STARLINK-3321,PAYLOAD,U,22001A,2022-05-08 22:00:00,999936,15.08846424,0.0001682,53.218,337.4229,50.9898,169.7698,0,999,360,-0.00076886,-0.00012506,0.0,3436768,0 STARLINK-3321,1 50803U 22001A   22128.91667824 -.00012506  00000-0 -76886-3 0  9993,2 50803  53.2180 337.4229 0001682  50.9898 169.7698 15.08846424  3600,2022-001A,50803,6917.861,95.437,540.889,538.562,1
GENERATED VIA SPACETRACK.ORG API,18 SPCS,50803,STARLINK-3321,PAYLOAD,U,22001A,2022-05-09 14:00:01,999872,15.08838325,0.0001583,53.2178,334.4286,61.289,182.7235,0,999,2030,0.0011085,0.00017397,0.0,3436956,0 STARLINK-3321,1 50803U 22001A   22129.58335648  .00017397  00000-0  11085-2 0  9993,2 50803  53.2178 334.4286 0001583  61.2890 182.7235 15.08838325 20303,2022-001A,50803,6917.886,95.438,540.846,538.655,1
GENERATED VIA SPACETRACK.ORG API,18 SPCS,50803,STARLINK-3321,PAYLOAD,U,22001A,2022-05-09 22:00:00,999936,15.08835519,0.0001724,53.2176,332.9342,53.467,202.0836,0,999,359,0.0009967,0.00015608,0.0,3438010,0 STARLINK-3321,1 50803U 22001A   22129.91667824  .00015608  00000-0  99670-3 0  9994,2 50803  53.2176 332.9342 0001724  53.4670 202.0836 15.08835519  3590,2022-001A,50803,6917.894,95.438,540.952,538.566,1
GENERATED VIA SPACETRACK.ORG API,18 SPCS,50803,STARLINK-3321,PAYLOAD,U,22001A,2022-05-10 06:00:00,999648,15.08856855,0.0001564,53.2172,331.4366,54.2497,212.8973,0,999,2041,-0.0034197,-0.00054327,0.0,3438164,0 STARLINK-3321,1 50803U 22001A   22130.25001157 -.00054327  00000-0 -34197-2 0  9999,2 50803  53.2172 331.4366 0001564  54.2497 212.8973 15.08856855 20411,2022-001A,50803,6917.829,95.436,540.776,538.612,1
GENERATED VIA SPACETRACK.ORG API,18 SPCS,50803,STARLINK-3321,PAYLOAD,U,22001A,2022-05-10 14:00:01,224,15.08834863,0.0001508,53.2172,329.9399,60.1451,218.5892,0,999,359,0.00068034,0.00010555,0.0,3439131,0 STARLINK-3321,1 50803U 22001A   22130.58334491  .00010555  00000-0  68034-3 0  9996,2 50803  53.2172 329.9399 0001508  60.1451 218.5892 15.08834863  3591,2022-001A,50803,6917.896,95.438,540.804,538.718,1
GENERATED VIA SPACETRACK.ORG API,18 SPCS,50803,STARLINK-3321,PAYLOAD,U,22001A,2022-05-10 18:00:00,999648,15.08845541,0.0001597,53.217,329.1928,55.5747,48.9518,0,999,2048,-0.0014789,-0.00023751,0.0,3439313,0 STARLINK-3321,1 50803U 22001A   22130.75001157 -.00023751  00000-0 -14789-2 0  9996,2 50803  53.2170 329.1928 0001597  55.5747  48.9518 15.08845541 20485,2022-001A,50803,6917.863,95.437,540.833,538.624,1
GENERATED VIA SPACETRACK.ORG API,18 SPCS,50803,STARLINK-3321,PAYLOAD,U,22001A,2022-05-10 18:00:00,999648,15.08845541,0.0001597,53.217,329.1928,55.5747,48.9518,0,999,358,-0.0014789,-0.00023751,0.0,3439673,0 STARLINK-3321,1 50803U 22001A   22130.75001157 -.00023751  00000-0 -14789-2 0  9996,2 50803  53.2170 329.1928 0001597  55.5747  48.9518 15.08845541  3587,2022-001A,50803,6917.863,95.437,540.833,538.624,1
GENERATED VIA SPACETRACK.ORG API,18 SPCS,50803,STARLINK-3321,PAYLOAD,U,22001A,2022-05-11 22:00:00,999936,15.08812571,0.000183,53.2166,323.9564,54.5962,270.4843,0,999,2066,0.0023218,0.00036829,0.0,3440849,0 STARLINK-3321,1 50803U 22001A   22131.91667824  .00036829  00000-0  23218-2 0  9999,2 50803  53.2166 323.9564 0001830  54.5962 270.4843 15.08812571 20666,2022-001A,50803,6917.964,95.439,541.095,538.563,1
GENERATED VIA SPACETRACK.ORG API,18 SPCS,50803,STARLINK-3321,PAYLOAD,U,22001A,2022-05-12 14:00:01,224,15.08863227,0.0001697,53.2166,320.9618,60.4342,287.8168,0,999,130,-0.00048841,-8.058e-05,0.0,3442533,0 STARLINK-3321,1 50803U 22001A   22132.58334491 -.00008058  00000-0 -48841-3 0  9999,2 50803  53.2166 320.9618 0001697  60.4342 287.8168 15.08863227  1308,2022-001A,50803,6917.809,95.436,540.848,538.5,1
GENERATED VIA SPACETRACK.ORG API,18 SPCS,50803,STARLINK-3321,PAYLOAD,U,22001A,2022-05-12 20:00:01,224,15.08855734,0.0001814,53.2164,319.8408,53.63,213.3378,0,999,2080,-0.0017803,-0.00028522,0.0,3441963,0 STARLINK-3321,1 50803U 22001A   22132.83334491 -.00028522  00000-0 -17803-2 0  9998,2 50803  53.2164 319.8408 0001814  53.6300 213.3378 15.08855734 20806,2022-001A,50803,6917.832,95.437,540.952,538.442,1
GENERATED VIA SPACETRACK.ORG API,18 SPCS,50803,STARLINK-3321,PAYLOAD,U,22001A,2022-05-12 22:00:00,999936,15.08829944,0.0001814,53.2166,319.467,52.7078,307.1697,0,999,130,0.0012895,0.00020288,0.0,3442534,0 STARLINK-3321,1 50803U 22001A   22132.91667824  .00020288  00000-0  12895-2 0  9991,2 50803  53.2166 319.4670 0001814  52.7078 307.1697 15.08829944  1301,2022-001A,50803,6917.911,95.438,541.031,538.521,1
GENERATED VIA SPACETRACK.ORG API,18 SPCS,50803,STARLINK-3321,PAYLOAD,U,22001A,2022-05-13 14:00:01,224,15.08843285,0.0001773,53.2168,316.4724,59.5928,323.4702,0,999,2091,-0.0012976,-0.00020882,0.0,3443234,0 STARLINK-3321,1 50803U 22001A   22133.58334491 -.00020882  00000-0 -12976-2 0  9998,2 50803  53.2168 316.4724 0001773  59.5928 323.4702 15.08843285 20913,2022-001A,50803,6917.87,95.437,540.962,538.509,1
GENERATED VIA SPACETRACK.ORG API,18 SPCS,50803,STARLINK-3321,PAYLOAD,U,22001A,2022-05-13 22:00:00,999936,15.08817027,0.0001908,53.2168,314.9776,53.0575,341.6039,0,999,130,0.0023752,0.00037692,0.0,3444395,0 STARLINK-3321,1 50803U 22001A   22133.91667824  .00037692  00000-0  23752-2 0  9993,2 50803  53.2168 314.9776 0001908  53.0575 341.6039 15.08817027  1302,2022-001A,50803,6917.951,95.439,541.136,538.496,1
GENERATED VIA SPACETRACK.ORG API,18 SPCS,50803,STARLINK-3321,PAYLOAD,U,22001A,2022-05-14 14:00:01,224,15.0884573,0.0001727,53.217,311.983,56.9294,0.8978,0,999,2106,-0.00031726,-5.335e-05,0.0,3445114,0 STARLINK-3321,1 50803U 22001A   22134.58334491 -.00005335  00000-0 -31726-3 0  9990,2 50803  53.2170 311.9830 0001727  56.9294   0.8978 15.08845730 21065,2022-001A,50803,6917.863,95.437,540.923,538.533,1
GENERATED VIA SPACETRACK.ORG API,18 SPCS,50803,STARLINK-3321,PAYLOAD,U,22001A,2022-05-14 22:00:00,999936,15.08821234,0.0001839,53.2169,310.488,50.3083,19.1231,0,999,130,0.0036909,0.00058914,0.0,3445938,0 STARLINK-3321,1 50803U 22001A   22134.91667824  .00058914  00000-0  36909-2 0  9992,2 50803  53.2169 310.4880 0001839  50.3083  19.1231 15.08821234  1303,2022-001A,50803,6917.938,95.439,541.075,538.531,1
GENERATED VIA SPACETRACK.ORG API,18 SPCS,50803,STARLINK-3321,PAYLOAD,U,22001A,2022-05-15 14:00:01,999872,15.08866013,0.0001581,53.2172,307.4935,52.9892,39.7024,0,999,2121,-0.0032853,-0.00052232,0.0,3446667,0 STARLINK-3321,1 50803U 22001A   22135.58335648 -.00052232  00000-0 -32853-2 0  9995,2 50803  53.2172 307.4935 0001581  52.9892  39.7024 15.08866013 21218,2022-001A,50803,6917.801,95.436,540.76,538.572,1
GENERATED VIA SPACETRACK.ORG API,18 SPCS,50803,STARLINK-3321,PAYLOAD,U,22001A,2022-05-15 22:00:00,999936,15.08803701,0.0001659,53.217,305.9985,44.6397,59.6059,0,999,130,0.0039301,0.00062754,0.0,3447521,0 STARLINK-3321,1 50803U 22001A   22135.91667824  .00062754  00000-0  39301-2 0  9999,2 50803  53.2170 305.9985 0001659  44.6397  59.6059 15.08803701  1300,2022-001A,50803,6917.991,95.44,541.004,538.709,1
